[{"OBJECT_NAME":"STARLINK-34779","OBJECT_ID":"2025-165C","EPOCH":"2026-03-09T17:01:35.419008","MEAN_MOTION":15.05645667,"ECCENTRICITY":1.748e-5,"INCLINATION":97.6021,"RA_OF_ASC_NODE":147.2494,"ARG_OF_PERICENTER":148.6913,"MEAN_ANOMALY":211.4324,"EPHEMERIS_TYPE":0,"CLASSIFICATION_TYPE":"U","NORAD_CAT_ID":65058,"ELEMENT_SET_NO":999,"REV_AT_EPOCH":3479,"BSTAR":0.00045003279,"MEAN_MOTION_DOT":6.438e-5,"MEAN_MOTION_DDOT":0},{"OBJECT_NAME":"PEGASUS DEB","OBJECT_ID":"1994-029AGC","EPOCH":"2026-03-05T08:27:18.984384","MEAN_MOTION":14.52218034,"ECCENTRICITY":0.0236757,"INCLINATION":81.9426,"RA_OF_ASC_NODE":296.4283,"ARG_OF_PERICENTER":114.8689,"MEAN_ANOMALY":247.7324,"EPHEMERIS_TYPE":0,"CLASSIFICATION_TYPE":"U","NORAD_CAT_ID":39929,"ELEMENT_SET_NO":999,"REV_AT_EPOCH":61587,"BSTAR":0.0010545,"MEAN_MOTION_DOT":6.215e-5,"MEAN_MOTION_DDOT":0}]
